[{"OBJECT_NAME":"STARLINK-1404","OBJECT_ID":"2020-035AF","EPOCH":"2026-03-09T22:58:16.298976","MEAN_MOTION":15.3019821,"ECCENTRICITY":0.0001357,"INCLINATION":53.1608,"RA_OF_ASC_NODE":48.4571,"ARG_OF_PERICENTER":89.2984,"MEAN_ANOMALY":270.8172,"EPHEMERIS_TYPE":0,"CLASSIFICATION_TYPE":"U","NORAD_CAT_ID":45686,"ELEMENT_SET_NO":999,"REV_AT_EPOCH":31901,"BSTAR":3.7396603e-5,"MEAN_MOTION_DOT":7.48e-6,"MEAN_MOTION_DDOT":0},{"OBJECT_NAME":"OBJECT D","OBJECT_ID":"2024-174D","EPOCH":"2026-03-10T00:15:10.483200","MEAN_MOTION":15.28039787,"ECCENTRICITY":0.00110644,"INCLINATION":97.4441,"RA_OF_ASC_NODE":80.4677,"ARG_OF_PERICENTER":212.9968,"MEAN_ANOMALY":147.0582,"EPHEMERIS_TYPE":0,"CLASSIFICATION_TYPE":"U","NORAD_CAT_ID":61241,"ELEMENT_SET_NO":999,"REV_AT_EPOCH":8076,"BSTAR":0.00036340099,"MEAN_MOTION_DOT":9.884e-5,"MEAN_MOTION_DDOT":0}]
